{
    "links": {
        "self": "http://www.neowsapp.com/rest/v1/neo/3619730?api_key=iIulBulltgU6a56xZRHN4H3l9WmuAYTsLGpBGhQ2"
    },
    "id": "3619730",
    "neo_reference_id": "3619730",
    "name": "(2012 XL55)",
    "designation": "2012 XL55",
    "nasa_jpl_url": "http://ssd.jpl.nasa.gov/sbdb.cgi?sstr=3619730",
    "absolute_magnitude_h": 27.0,
    "estimated_diameter": {
        "kilometers": {
            "estimated_diameter_min": 0.0105816886,
            "estimated_diameter_max": 0.023661375
        },
        "meters": {
            "estimated_diameter_min": 10.5816885933,
            "estimated_diameter_max": 23.6613750114
        },
        "miles": {
            "estimated_diameter_min": 0.0065751544,
            "estimated_diameter_max": 0.0147024923
        },
        "feet": {
            "estimated_diameter_min": 34.7168272045,
            "estimated_diameter_max": 77.6291855923
        }
    },
    "is_potentially_hazardous_asteroid": false,
    "close_approach_data": [
        {
            "close_approach_date": "2012-12-11",
            "close_approach_date_full": "2012-Dec-11 11:11",
            "epoch_date_close_approach": 1355224260000,
            "relative_velocity": {
                "kilometers_per_second": "18.7522199743",
                "kilometers_per_hour": "67507.9919073007",
                "miles_per_hour": "41946.8408604003"
            },
            "miss_distance": {
                "astronomical": "0.0108860124",
                "lunar": "4.2346588236",
                "kilometers": "1628524.267833588",
                "miles": "1011918.0567679944"
            },
            "orbiting_body": "Earth"
        },
        {
            "close_approach_date": "2056-06-19",
            "close_approach_date_full": "2056-Jun-19 18:40",
            "epoch_date_close_approach": 2728665600000,
            "relative_velocity": {
                "kilometers_per_second": "24.9459659717",
                "kilometers_per_hour": "89805.4774981837",
                "miles_per_hour": "55801.6312821353"
            },
            "miss_distance": {
                "astronomical": "0.202392183",
                "lunar": "78.730559187",
                "kilometers": "30277439.48145021",
                "miles": "18813528.498864498"
            },
            "orbiting_body": "Earth"
        }
    ],
    "orbital_data": {
        "orbit_id": "4",
        "orbit_determination_date": "2017-04-06 08:47:44",
        "first_observation_date": "2012-12-08",
        "last_observation_date": "2012-12-10",
        "data_arc_in_days": 2,
        "observations_used": 16,
        "orbit_uncertainty": "8",
        "minimum_orbit_intersection": ".000930692",
        "jupiter_tisserand_invariant": "3.892",
        "epoch_osculation": "2456270.5",
        "eccentricity": ".6469245729876328",
        "semi_major_axis": "1.726067844932762",
        "inclination": "2.390919004108574",
        "ascending_node_longitude": "77.17001143574727",
        "orbital_period": "828.2953438759286",
        "perihelion_distance": ".6094321414019511",
        "perihelion_argument": "90.13271044283053",
        "aphelion_distance": "2.842703548463572",
        "perihelion_time": "2456320.547841945245",
        "mean_anomaly": "338.247827621512",
        "mean_motion": ".4346275789930372",
        "equinox": "J2000",
        "orbit_class": {
            "orbit_class_type": "APO",
            "orbit_class_description": "Near-Earth asteroid orbits which cross the Earth’s orbit similar to that of 1862 Apollo",
            "orbit_class_range": "a (semi-major axis) > 1.0 AU; q (perihelion) < 1.017 AU"
        }
    },
    "is_sentry_object": false
}